{
  "type": "FeatureCollection",
  "name": "sample",
  "crs": {
    "type": "name",
    "properties": { "name": "urn:ogc:def:crs:OGC:1.3:CRS84" }
  },
  "features": [
    {
      "type": "Feature",
      "properties": { "name": "Ankara" },
      "geometry": {
        "type": "Point",
        "coordinates": [32.8597, 39.9334]
      }
    },
    {
      "type": "Feature",
      "properties": { "name": "demo-bbox" },
      "geometry": {
        "type": "Polygon",
        "coordinates": [
          [
            [28.5, 40.8],
            [29.2, 40.8],
            [29.2, 41.2],
            [28.5, 41.2],
            [28.5, 40.8]
          ]
        ]
      }
    }
  ]
}
